{
  "type": "FeatureCollection",
  "features": [
    {
      "type": "Feature",
      "properties": {
        "norad_id": 38819,
        "name": "FENGYUN 1C DEB",
        "group": "fengyun-1c-debris",
        "lat": 1.2305519631920718,
        "lon": -16.50413396433095,
        "alt_km": 887.7659002159526,
        "timestamp": "2025-12-16T23:36:36.486914+00:00",
        "meta_object_name": "FENGYUN 1C DEB",
        "meta_object_id": "1999-025EVK",
        "meta_epoch": "2025-12-15T18:00:00.476064",
        "meta_mean_motion": 14.19377038,
        "meta_eccentricity": 0.00798744,
        "meta_inclination": 98.6182,
        "meta_ra_of_asc_node": 342.4822,
        "meta_arg_of_pericenter": 185.758,
        "meta_mean_anomaly": 354.9815,
        "meta_ephemeris_type": 0,
        "meta_classification_type": "U",
        "meta_norad_cat_id": 38819,
        "meta_element_set_no": 999,
        "meta_rev_at_epoch": 63520,
        "meta_bstar": 0.00040158709,
        "meta_mean_motion_dot": 8.29e-06,
        "meta_mean_motion_ddot": 0,
        "tle_line1": "1 38819U 99025EVK 25349.75000551  .00000829  00000+0  40159-3 0  9990",
        "tle_line2": "2 38819  98.6182 342.4822 0079874 185.7580 354.9815 14.19377038635203"
      },
      "geometry": {
        "type": "Point",
        "coordinates": [
          -16.50413396433095,
          1.2305519631920718
        ]
      }
    },
    {
      "type": "Feature",
      "properties": {
        "norad_id": 38824,
        "name": "FENGYUN 1C DEB",
        "group": "fengyun-1c-debris",
        "lat": -48.57662259330153,
        "lon": 135.4185317960542,
        "alt_km": 887.3433297450692,
        "timestamp": "2025-12-16T23:36:36.486924+00:00",
        "meta_object_name": "FENGYUN 1C DEB",
        "meta_object_id": "1999-025EVQ",
        "meta_epoch": "2025-11-20T14:24:21.461760",
        "meta_mean_motion": 14.13875773,
        "meta_eccentricity": 0.00960414,
        "meta_inclination": 99.2955,
        "meta_ra_of_asc_node": 97.2934,
        "meta_arg_of_pericenter": 263.2679,
        "meta_mean_anomaly": 95.7556,
        "meta_ephemeris_type": 0,
        "meta_classification_type": "U",
        "meta_norad_cat_id": 38824,
        "meta_element_set_no": 999,
        "meta_rev_at_epoch": 68824,
        "meta_bstar": 0.0027703315,
        "meta_mean_motion_dot": 5.443e-05,
        "meta_mean_motion_ddot": 0,
        "tle_line1": "1 38824U 99025EVQ 25324.60024840  .00005443  00000+0  27703-2 0  9996",
        "tle_line2": "2 38824  99.2955  97.2934 0096041 263.2679  95.7556 14.13875773688246"
      },
      "geometry": {
        "type": "Point",
        "coordinates": [
          135.4185317960542,
          -48.57662259330153
        ]
      }
    },
    {
      "type": "Feature",
      "properties": {
        "norad_id": 38827,
        "name": "FENGYUN 1C DEB",
        "group": "fengyun-1c-debris",
        "lat": 35.012920852642424,
        "lon": -160.28846437356975,
        "alt_km": 920.3870394224905,
        "timestamp": "2025-12-16T23:36:36.486934+00:00",
        "meta_object_name": "FENGYUN 1C DEB",
        "meta_object_id": "1999-025EVT",
        "meta_epoch": "2025-12-15T08:22:40.312416",
        "meta_mean_motion": 14.32871633,
        "meta_eccentricity": 0.02162225,
        "meta_inclination": 98.3869,
        "meta_ra_of_asc_node": 12.1956,
        "meta_arg_of_pericenter": 305.0884,
        "meta_mean_anomaly": 53.0194,
        "meta_ephemeris_type": 0,
        "meta_classification_type": "U",
        "meta_norad_cat_id": 38827,
        "meta_element_set_no": 999,
        "meta_rev_at_epoch": 61097,
        "meta_bstar": 0.00067109262,
        "meta_mean_motion_dot": 2.325e-05,
        "meta_mean_motion_ddot": 0,
        "tle_line1": "1 38827U 99025EVT 25349.34907769  .00002325  00000+0  67109-3 0  9998",
        "tle_line2": "2 38827  98.3869  12.1956 0216222 305.0884  53.0194 14.32871633610973"
      },
      "geometry": {
        "type": "Point",
        "coordinates": [
          -160.28846437356975,
          35.012920852642424
        ]
      }
    },
    {
      "type": "Feature",
      "properties": {
        "norad_id": 38829,
        "name": "FENGYUN 1C DEB",
        "group": "fengyun-1c-debris",
        "lat": 80.04122919017507,
        "lon": -54.463092913030685,
        "alt_km": 842.6473323275904,
        "timestamp": "2025-12-16T23:36:36.486944+00:00",
        "meta_object_name": "FENGYUN 1C DEB",
        "meta_object_id": "1999-025EVV",
        "meta_epoch": "2025-12-12T18:40:24.452256",
        "meta_mean_motion": 14.09216687,
        "meta_eccentricity": 0.0041168,
        "meta_inclination": 98.7498,
        "meta_ra_of_asc_node": 2.7487,
        "meta_arg_of_pericenter": 30.5355,
        "meta_mean_anomaly": 329.82,
        "meta_ephemeris_type": 0,
        "meta_classification_type": "U",
        "meta_norad_cat_id": 38829,
        "meta_element_set_no": 999,
        "meta_rev_at_epoch": 64133,
        "meta_bstar": 0.00086306808,
        "meta_mean_motion_dot": 1.47e-05,
        "meta_mean_motion_ddot": 0,
        "tle_line1": "1 38829U 99025EVV 25346.77806079  .00001470  00000+0  86307-3 0  9997",
        "tle_line2": "2 38829  98.7498   2.7487 0041168  30.5355 329.8200 14.09216687641331"
      },
      "geometry": {
        "type": "Point",
        "coordinates": [
          -54.463092913030685,
          80.04122919017507
        ]
      }
    },
    {
      "type": "Feature",
      "properties": {
        "norad_id": 38832,
        "name": "FENGYUN 1C DEB",
        "group": "fengyun-1c-debris",
        "lat": 80.60399697634867,
        "lon": -63.95286570602076,
        "alt_km": 839.917858989158,
        "timestamp": "2025-12-16T23:36:36.486954+00:00",
        "meta_object_name": "FENGYUN 1C DEB",
        "meta_object_id": "1999-025EVY",
        "meta_epoch": "2025-12-06T01:35:41.081280",
        "meta_mean_motion": 14.04461067,
        "meta_eccentricity": 0.00842955,
        "meta_inclination": 99.2666,
        "meta_ra_of_asc_node": 24.2995,
        "meta_arg_of_pericenter": 61.4582,
        "meta_mean_anomaly": 299.5038,
        "meta_ephemeris_type": 0,
        "meta_classification_type": "U",
        "meta_norad_cat_id": 38832,
        "meta_element_set_no": 999,
        "meta_rev_at_epoch": 63664,
        "meta_bstar": 0.0018423355,
        "meta_mean_motion_dot": 2.987e-05,
        "meta_mean_motion_ddot": 0,
        "tle_line1": "1 38832U 99025EVY 25340.06644770  .00002987  00000+0  18423-2 0  9992",
        "tle_line2": "2 38832  99.2666  24.2995 0084295  61.4582 299.5038 14.04461067636643"
      },
      "geometry": {
        "type": "Point",
        "coordinates": [
          -63.95286570602076,
          80.60399697634867
        ]
      }
    },
    {
      "type": "Feature",
      "properties": {
        "norad_id": 39537,
        "name": "FENGYUN 1C DEB",
        "group": "fengyun-1c-debris",
        "lat": -13.724189119124265,
        "lon": 138.88001274024958,
        "alt_km": 828.5946864435391,
        "timestamp": "2025-12-16T23:36:36.486966+00:00",
        "meta_object_name": "FENGYUN 1C DEB",
        "meta_object_id": "1999-025EWE",
        "meta_epoch": "2025-12-08T16:10:28.003008",
        "meta_mean_motion": 13.84154142,
        "meta_eccentricity": 0.01774078,
        "meta_inclination": 99.1538,
        "meta_ra_of_asc_node": 128.5243,
        "meta_arg_of_pericenter": 352.1329,
        "meta_mean_anomaly": 7.7052,
        "meta_ephemeris_type": 0,
        "meta_classification_type": "U",
        "meta_norad_cat_id": 39537,
        "meta_element_set_no": 999,
        "meta_rev_at_epoch": 59200,
        "meta_bstar": 0.0019509183,
        "meta_mean_motion_dot": 2.413e-05,
        "meta_mean_motion_ddot": 0,
        "tle_line1": "1 39537U 99025EWE 25342.67393522  .00002413  00000+0  19509-2 0  9990",
        "tle_line2": "2 39537  99.1538 128.5243 0177407 352.1329   7.7052 13.84154142592000"
      },
      "geometry": {
        "type": "Point",
        "coordinates": [
          138.88001274024958,
          -13.724189119124265
        ]
      }
    },
    {
      "type": "Feature",
      "properties": {
        "norad_id": 39541,
        "name": "FENGYUN 1C DEB",
        "group": "fengyun-1c-debris",
        "lat": -76.67080988006394,
        "lon": 172.8620453426101,
        "alt_km": 880.297314391335,
        "timestamp": "2025-12-16T23:36:36.486979+00:00",
        "meta_object_name": "FENGYUN 1C DEB",
        "meta_object_id": "1999-025EWJ",
        "meta_epoch": "2025-12-14T09:31:50.250432",
        "meta_mean_motion": 14.20397112,
        "meta_eccentricity": 0.00718166,
        "meta_inclination": 98.681,
        "meta_ra_of_asc_node": 30.4764,
        "meta_arg_of_pericenter": 68.7411,
        "meta_mean_anomaly": 292.1416,
        "meta_ephemeris_type": 0,
        "meta_classification_type": "U",
        "meta_norad_cat_id": 39541,
        "meta_element_set_no": 999,
        "meta_rev_at_epoch": 59026,
        "meta_bstar": 0.00071004371,
        "meta_mean_motion_dot": 1.519e-05,
        "meta_mean_motion_ddot": 0,
        "tle_line1": "1 39541U 99025EWJ 25348.39710938  .00001519  00000+0  71004-3 0  9999",
        "tle_line2": "2 39541  98.6810  30.4764 0071816  68.7411 292.1416 14.20397112590267"
      },
      "geometry": {
        "type": "Point",
        "coordinates": [
          172.8620453426101,
          -76.67080988006394
        ]
      }
    }
  ]
}